[
  {
    "OBJECT_NAME": "STARLINK-11409 [DTC]",
    "OBJECT_ID": "25035K",
    "EPOCH": "2025-11-11T04:48:49.819104",
    "MEAN_MOTION": 15.70879971,
    "ECCENTRICITY": 0.0001545,
    "INCLINATION": 42.9994,
    "RA_OF_ASC_NODE": 9.7281,
    "ARG_OF_PERICENTER": 263.2481,
    "MEAN_ANOMALY": 96.8211,
    "EPHEMERIS_TYPE": 0,
    "CLASSIFICATION_TYPE": "U",
    "NORAD_CAT_ID": 63061,
    "ELEMENT_SET_NO": 999,
    "REV_AT_EPOCH": 4258,
    "BSTAR": 0.0026834999999999997,
    "MEAN_MOTION_DOT": 0.00359816,
    "MEAN_MOTION_DDOT": 0.0,
    "TLE_LINE1": "1 63061U 25035K   25315.20057661  .00359816  00000+0  26835-2 0  9991",
    "TLE_LINE2": "2 63061  42.9994   9.7281 0001545 263.2481  96.8211 15.70879971 42583",
    "COMMENT": "Grouped by shell and plane from TLE"
  },
  {
    "OBJECT_NAME": "STARLINK-11399 [DTC]",
    "OBJECT_ID": "25035M",
    "EPOCH": "2025-11-11T04:01:38.921376",
    "MEAN_MOTION": 15.7105017,
    "ECCENTRICITY": 0.0007984,
    "INCLINATION": 42.9987,
    "RA_OF_ASC_NODE": 9.4638,
    "ARG_OF_PERICENTER": 293.0325,
    "MEAN_ANOMALY": 66.97,
    "EPHEMERIS_TYPE": 0,
    "CLASSIFICATION_TYPE": "U",
    "NORAD_CAT_ID": 63063,
    "ELEMENT_SET_NO": 999,
    "REV_AT_EPOCH": 4258,
    "BSTAR": 0.0022309,
    "MEAN_MOTION_DOT": 0.00299341,
    "MEAN_MOTION_DDOT": 0.0,
    "TLE_LINE1": "1 63063U 25035M   25315.16781159  .00299341  00000+0  22309-2 0  9992",
    "TLE_LINE2": "2 63063  42.9987   9.4638 0007984 293.0325  66.9700 15.71050170 42585",
    "COMMENT": "Grouped by shell and plane from TLE"
  },
  {
    "OBJECT_NAME": "STARLINK-11408 [DTC]",
    "OBJECT_ID": "25035N",
    "EPOCH": "2025-11-11T03:53:59.885952",
    "MEAN_MOTION": 15.71004274,
    "ECCENTRICITY": 0.0002012,
    "INCLINATION": 43.0006,
    "RA_OF_ASC_NODE": 9.4191,
    "ARG_OF_PERICENTER": 240.4063,
    "MEAN_ANOMALY": 119.6604,
    "EPHEMERIS_TYPE": 0,
    "CLASSIFICATION_TYPE": "U",
    "NORAD_CAT_ID": 63064,
    "ELEMENT_SET_NO": 999,
    "REV_AT_EPOCH": 4258,
    "BSTAR": 0.0024325,
    "MEAN_MOTION_DOT": 0.00326495,
    "MEAN_MOTION_DDOT": 0.0,
    "TLE_LINE1": "1 63064U 25035N   25315.16249868  .00326495  00000+0  24325-2 0  9990",
    "TLE_LINE2": "2 63064  43.0006   9.4191 0002012 240.4063 119.6604 15.71004274 42589",
    "COMMENT": "Grouped by shell and plane from TLE"
  }
]